NORAD_CAT_ID,OBJECT_NAME,OBJECT_TYPE,EPOCH,MEAN_MOTION,ECCENTRICITY,INCLINATION,RA_OF_ASC_NODE,ARG_OF_PERICENTER,MEAN_ANOMALY,BSTAR,MEAN_MOTION_DOT,MEAN_MOTION_DDOT,TLE_LINE0,TLE_LINE1,TLE_LINE2,SEMIMAJOR_AXIS,PERIOD,APOGEE,PERIGEE,DECAYED
55772.0,STARLINK-5835,PAYLOAD,2024-07-01 19:30:37,14.98335717,0.0003291,69.9999,337.1808,272.766,87.3122,0.00028795,3.345e-05,0.0,0 STARLINK-5835,1 55772U 23028AH  24183.81293889  .00003345  00000-0  28795-3 0  9996,2 55772  69.9999 337.1808 0003291 272.7660  87.3122 14.98335717 74286,6950.175,96.107,574.328,569.753,0.0
55772.0,STARLINK-5835,PAYLOAD,2024-07-02 03:31:18,14.98337876,0.000312,70.0003,336.3395,271.6925,88.3877,0.00017499,1.996e-05,0.0,0 STARLINK-5835,1 55772U 23028AH  24184.14673926  .00001996  00000-0  17499-3 0  9996,2 55772  70.0003 336.3395 0003120 271.6925  88.3877 14.98337876 74332,6950.169,96.106,574.202,569.865,0.0
55772.0,STARLINK-5835,PAYLOAD,2024-07-02 14:44:15,14.98332918,0.0002844,70.0012,335.1631,269.4242,90.6592,7.4693e-05,7.98e-06,0.0,0 STARLINK-5835,1 55772U 23028AH  24184.61406401  .00000798  00000-0  74693-4 0  9999,2 55772  70.0012 335.1631 0002844 269.4242  90.6592 14.98332918 74401,6950.184,96.107,574.025,570.072,0.0
55772.0,STARLINK-5835,PAYLOAD,2024-07-02 19:32:39,14.98328023,0.000288,70.0009,334.6591,269.3046,90.7783,0.00018893,2.162e-05,0.0,0 STARLINK-5835,1 55772U 23028AH  24184.81434453  .00002162  00000-0  18893-3 0  9995,2 55772  70.0009 334.6591 0002880 269.3046  90.7783 14.98328023 74435,6950.199,96.107,574.066,570.062,0.0
55772.0,STARLINK-5835,PAYLOAD,2024-07-03 19:34:40,14.98333086,0.000281,70.0011,332.1313,263.4909,96.593,-8.2986e-06,-1.92e-06,0.0,0 STARLINK-5835,1 55772U 23028AH  24185.81574409 -.00000192  00000-0 -82986-5 0  9991,2 55772  70.0011 332.1313 0002810 263.4909  96.5930 14.98333086 74588,6950.183,96.107,574.001,570.095,0.0
55772.0,STARLINK-5835,PAYLOAD,2024-07-04 14:48:16,14.98329869,0.0002886,70.0008,330.1113,268.1032,91.9796,6.9184e-05,7.33e-06,0.0,0 STARLINK-5835,1 55772U 23028AH  24186.61686269  .00000733  00000-0  69184-4 0  9991,2 55772  70.0008 330.1113 0002886 268.1032  91.9796 14.98329869 74709,6950.193,96.107,574.064,570.052,0.0
55772.0,STARLINK-5835,PAYLOAD,2024-07-04 19:36:40,14.98335077,0.0002926,70.0009,329.6071,270.5691,89.5133,5.7125e-05,5.89e-06,0.0,0 STARLINK-5835,1 55772U 23028AH  24186.81713944  .00000589  00000-0  57125-4 0  9995,2 55772  70.0009 329.6071 0002926 270.5691  89.5133 14.98335077 74738,6950.177,96.107,574.076,570.009,0.0
55772.0,STARLINK-5835,PAYLOAD,2024-07-05 13:14:09,14.98329984,0.0003003,70.0008,327.7557,269.3044,90.777,3.3613e-05,3.08e-06,0.0,0 STARLINK-5835,1 55772U 23028AH  24187.55150314  .00000308  00000-0  33613-4 0  9998,2 55772  70.0008 327.7557 0003003 269.3044  90.7770 14.98329984 74843,6950.193,96.107,574.145,569.971,0.0
55772.0,STARLINK-5835,PAYLOAD,2024-07-05 19:38:41,14.98337311,0.0002969,70.0009,327.0825,269.224,90.8579,0.00011206,1.245e-05,0.0,0 STARLINK-5835,1 55772U 23028AH  24187.81853626  .00001245  00000-0  11206-3 0  9997,2 55772  70.0009 327.0825 0002969 269.2240  90.8579 14.98337311 74887,6950.17,96.107,574.099,569.972,0.0
55772.0,STARLINK-5835,PAYLOAD,2024-07-06 02:03:14,14.98323037,0.0002835,70.0012,326.4091,270.932,89.1514,0.00020786,2.388e-05,0.0,0 STARLINK-5835,1 55772U 23028AH  24188.08558378  .00002388  00000-0  20786-3 0  9995,2 55772  70.0012 326.4091 0002835 270.9320  89.1514 14.98323037 74924,6950.214,96.107,574.05,570.109,0.0
55772.0,STARLINK-5835,PAYLOAD,2024-07-06 13:16:10,14.98328647,0.0002828,70.0013,325.231,271.5794,88.5041,-1.5175e-05,-2.74e-06,0.0,0 STARLINK-5835,1 55772U 23028AH  24188.55290398 -.00000274  00000-0 -15175-4 0  9993,2 55772  70.0013 325.2310 0002828 271.5794  88.5041 14.98328647 74997,6950.197,96.107,574.028,570.097,0.0
55772.0,STARLINK-5835,PAYLOAD,2024-07-06 18:04:34,14.98329109,0.0002746,70.0015,324.7268,268.8431,91.2413,1.4118e-05,7.6e-07,0.0,0 STARLINK-5835,1 55772U 23028AH  24188.75318287  .00000076  00000-0  14118-4 0  9997,2 55772  70.0015 324.7268 0002746 268.8431  91.2413 14.98329109 75024,6950.196,96.107,573.969,570.152,0.0
55772.0,STARLINK-5835,PAYLOAD,2024-07-07 02:05:15,14.98329958,0.0002746,70.0015,323.8852,269.0962,90.9883,1.1642e-05,4.6e-07,0.0,0 STARLINK-5835,1 55772U 23028AH  24189.08698250  .00000046  00000-0  11642-4 0  9991,2 55772  70.0015 323.8852 0002746 269.0962  90.9883 14.98329958 75079,6950.193,96.107,573.967,570.149,0.0
55772.0,STARLINK-5835,PAYLOAD,2024-07-07 13:18:11,14.98332689,0.0002839,70.0013,322.7069,267.1779,92.9055,7.3282e-06,-6e-08,0.0,0 STARLINK-5835,1 55772U 23028AH  24189.55430029 -.00000006  00000-0  73282-5 0  9997,2 55772  70.0013 322.7069 0002839 267.1779  92.9055 14.98332689 75149,6950.185,96.107,574.023,570.076,0.0
55772.0,STARLINK-5835,PAYLOAD,2024-07-08 13:20:12,14.98327005,0.0002871,70.0013,320.1819,268.2602,91.8229,3.7572e-05,3.55e-06,0.0,0 STARLINK-5835,1 55772U 23028AH  24190.55570227  .00000355  00000-0  37572-4 0  9991,2 55772  70.0013 320.1819 0002871 268.2602  91.8229 14.98327005 75290,6950.202,96.107,574.063,570.072,0.0
55772.0,STARLINK-5835,PAYLOAD,2024-07-08 14:56:20,14.98330274,0.0002877,70.0014,320.0138,267.7056,92.3774,5.464e-05,5.59e-06,0.0,0 STARLINK-5835,1 55772U 23028AH  24190.62245969  .00000559  00000-0  54640-4 0  9992,2 55772  70.0014 320.0138 0002877 267.7056  92.3774 14.98330274 75302,6950.192,96.107,574.057,570.057,0.0
55772.0,STARLINK-5835,PAYLOAD,2024-07-08 18:08:36,14.98330667,0.000289,70.0013,319.6772,267.5242,92.5587,5.6321e-05,5.79e-06,0.0,0 STARLINK-5835,1 55772U 23028AH  24190.75597938  .00000579  00000-0  56321-4 0  9992,2 55772  70.0013 319.6772 0002890 267.5242  92.5587 14.98330667 75321,6950.191,96.107,574.064,570.047,0.0
55772.0,STARLINK-5835,PAYLOAD,2024-07-09 13:22:13,14.98330617,0.0002963,70.0012,317.6575,267.4985,92.5835,4.3472e-05,4.26e-06,0.0,0 STARLINK-5835,1 55772U 23028AH  24191.55709891  .00000426  00000-0  43472-4 0  9998,2 55772  70.0012 317.6575 0002963 267.4985  92.5835 14.98330617 75447,6950.191,96.107,574.115,569.997,0.0
55772.0,STARLINK-5835,PAYLOAD,2024-07-09 18:10:37,14.98334456,0.0002939,70.0012,317.1523,267.0866,92.9957,6.3742e-05,6.68e-06,0.0,0 STARLINK-5835,1 55772U 23028AH  24191.75737566  .00000668  00000-0  63742-4 0  9990,2 55772  70.0012 317.1523 0002939 267.0866  92.9957 14.98334456 75479,6950.179,96.107,574.087,570.001,0.0
55772.0,STARLINK-5835,PAYLOAD,2024-07-10 10:11:58,14.98324787,0.0002963,70.001,315.4677,269.1782,90.9038,3.2118e-06,-5.5e-07,0.0,0 STARLINK-5835,1 55772U 23028AH  24192.42498331 -.00000055  00000-0  32118-5 0  9994,2 55772  70.0010 315.4677 0002963 269.1782  90.9038 14.98324787 75570,6950.209,96.107,574.133,570.015,0.0
55772.0,STARLINK-5835,PAYLOAD,2024-07-10 15:00:22,14.98327137,0.000281,70.0011,314.9624,264.4027,95.6812,7.2879e-05,7.77e-06,0.0,0 STARLINK-5835,1 55772U 23028AH  24192.62526027  .00000777  00000-0  72879-4 0  9997,2 55772  70.0011 314.9624 0002810 264.4027  95.6812 14.98327137 75606,6950.202,96.107,574.02,570.114,0.0
55772.0,STARLINK-5835,PAYLOAD,2024-07-10 18:12:38,14.98326736,0.0002817,70.0011,314.6258,264.7922,95.2915,6.844e-05,7.24e-06,0.0,0 STARLINK-5835,1 55772U 23028AH  24192.75878089  .00000724  00000-0  68440-4 0  9990,2 55772  70.0011 314.6258 0002817 264.7922  95.2915 14.98326736 75626,6950.203,96.107,574.026,570.11,0.0
55772.0,STARLINK-5835,PAYLOAD,2024-07-11 13:26:14,14.98334075,0.0003035,70.0009,312.6063,268.6835,91.3976,8.8766e-05,9.66e-06,0.0,0 STARLINK-5835,1 55772U 23028AH  24193.55989457  .00000966  00000-0  88766-4 0  9992,2 55772  70.0009 312.6063 0003035 268.6835  91.3976 14.98334075 75746,6950.18,96.107,574.155,569.936,0.0
55772.0,STARLINK-5835,PAYLOAD,2024-07-11 15:02:22,14.98334777,0.0002932,70.0011,312.438,267.4971,92.5852,9.4818e-05,1.039e-05,0.0,0 STARLINK-5835,1 55772U 23028AH  24193.62665383  .00001039  00000-0  94818-4 0  9996,2 55772  70.0011 312.4380 0002932 267.4971  92.5852 14.98334777 75758,6950.178,96.107,574.081,570.005,0.0
55772.0,STARLINK-5835,PAYLOAD,2024-07-12 11:52:07,14.98330007,0.0002761,70.0018,310.2506,267.8189,92.2653,5.488e-05,5.62e-06,0.0,0 STARLINK-5835,1 55772U 23028AH  24194.49453683  .00000562  00000-0  54880-4 0  9995,2 55772  70.0018 310.2506 0002761 267.8189  92.2653 14.98330007 75888,6950.193,96.107,573.977,570.139,0.0
55772.0,STARLINK-5835,PAYLOAD,2024-07-12 13:28:16,14.98330006,0.0002766,70.0019,310.0823,267.8812,92.203,4.6591e-05,4.63e-06,0.0,0 STARLINK-5835,1 55772U 23028AH  24194.56129701  .00000463  00000-0  46591-4 0  9994,2 55772  70.0019 310.0823 0002766 267.8812  92.2030 14.98330006 75896,6950.193,96.107,573.98,570.135,0.0
55772.0,STARLINK-5835,PAYLOAD,2024-07-12 18:16:40,14.98332024,0.0002585,70.002,309.5778,262.0151,98.0715,5.0238e-05,5.07e-06,0.0,0 STARLINK-5835,1 55772U 23028AH  24194.76157544  .00000507  00000-0  50238-4 0  9994,2 55772  70.0020 309.5778 0002585 262.0151  98.0715 14.98332024 75922,6950.187,96.107,573.848,570.255,0.0
55772.0,STARLINK-5835,PAYLOAD,2024-07-13 13:30:17,14.98329709,0.0002808,70.0015,307.5577,265.1125,94.9714,-4.495e-05,-6.29e-06,0.0,0 STARLINK-5835,1 55772U 23028AH  24195.56269897 -.00000629  00000-0 -44950-4 0  9999,2 55772  70.0015 307.5577 0002808 265.1125  94.9714 14.98329709 76048,6950.194,96.107,574.01,570.107,0.0
55772.0,STARLINK-5835,PAYLOAD,2024-07-13 16:42:33,14.98328202,0.0002782,70.0017,307.2212,263.6036,96.4807,-4.1194e-05,-5.84e-06,0.0,0 STARLINK-5835,1 55772U 23028AH  24195.69621992 -.00000584  00000-0 -41194-4 0  9998,2 55772  70.0017 307.2212 0002782 263.6036  96.4807 14.98328202 76067,6950.198,96.107,573.997,570.13,0.0
55772.0,STARLINK-5835,PAYLOAD,2024-07-14 13:32:17,14.98333848,0.0002976,70.0014,305.0339,269.5154,90.5664,7.0917e-05,7.53e-06,0.0,0 STARLINK-5835,1 55772U 23028AH  24196.56409361  .00000753  00000-0  70917-4 0  9990,2 55772  70.0014 305.0339 0002976 269.5154  90.5664 14.98333848 76193,6950.181,96.107,574.114,569.978,0.0
